[{"OBJECT_NAME":"STARLINK-3971","OBJECT_ID":"2022-052AW","EPOCH":"2026-03-09T19:18:58.937184","MEAN_MOTION":15.08843045,"ECCENTRICITY":0.00013918,"INCLINATION":53.216,"RA_OF_ASC_NODE":258.6072,"ARG_OF_PERICENTER":84.1985,"MEAN_ANOMALY":275.9166,"EPHEMERIS_TYPE":0,"CLASSIFICATION_TYPE":"U","NORAD_CAT_ID":52642,"ELEMENT_SET_NO":999,"REV_AT_EPOCH":21114,"BSTAR":-4.9778912e-5,"MEAN_MOTION_DOT":-1.08e-5,"MEAN_MOTION_DDOT":0},{"OBJECT_NAME":"LEMUR-2-AHMED-ASRAR","OBJECT_ID":"2024-149DN","EPOCH":"2026-03-09T17:35:01.338432","MEAN_MOTION":15.10376432,"ECCENTRICITY":0.00016334,"INCLINATION":97.7021,"RA_OF_ASC_NODE":152.9847,"ARG_OF_PERICENTER":18.5035,"MEAN_ANOMALY":341.6253,"EPHEMERIS_TYPE":0,"CLASSIFICATION_TYPE":"U","NORAD_CAT_ID":60576,"ELEMENT_SET_NO":999,"REV_AT_EPOCH":8554,"BSTAR":0.0007977347,"MEAN_MOTION_DOT":0.00013045,"MEAN_MOTION_DDOT":0}]
